[{"OBJECT_NAME":"ONEWEB-0356","OBJECT_ID":"2021-090E","EPOCH":"2026-04-22T23:59:14.057664","MEAN_MOTION":13.20772849,"ECCENTRICITY":0.0002342,"INCLINATION":87.9141,"RA_OF_ASC_NODE":285.4485,"ARG_OF_PERICENTER":112.6228,"MEAN_ANOMALY":247.5153,"EPHEMERIS_TYPE":0,"CLASSIFICATION_TYPE":"U","NORAD_CAT_ID":49283,"ELEMENT_SET_NO":999,"REV_AT_EPOCH":22254,"BSTAR":-0.00015757,"MEAN_MOTION_DOT":-5.1e-07,"MEAN_MOTION_DDOT":0.0},{"OBJECT_NAME":"ONEWEB-0358","OBJECT_ID":"2021-090F","EPOCH":"2026-04-23T00:42:26.055072","MEAN_MOTION":13.20769776,"ECCENTRICITY":0.0001711,"INCLINATION":87.914,"RA_OF_ASC_NODE":285.4457,"ARG_OF_PERICENTER":98.8486,"MEAN_ANOMALY":261.2841,"EPHEMERIS_TYPE":0,"CLASSIFICATION_TYPE":"U","NORAD_CAT_ID":49284,"ELEMENT_SET_NO":999,"REV_AT_EPOCH":22327,"BSTAR":-0.00010481000000000001,"MEAN_MOTION_DOT":-3e-07,"MEAN_MOTION_DDOT":0.0},{"OBJECT_NAME":"ONEWEB-0359","OBJECT_ID":"2021-090G","EPOCH":"2026-04-22T20:59:41.753184","MEAN_MOTION":13.20769453,"ECCENTRICITY":0.0001542,"INCLINATION":87.9137,"RA_OF_ASC_NODE":285.4733,"ARG_OF_PERICENTER":98.1411,"MEAN_ANOMALY":261.9897,"EPHEMERIS_TYPE":0,"CLASSIFICATION_TYPE":"U","NORAD_CAT_ID":49285,"ELEMENT_SET_NO":999,"REV_AT_EPOCH":22323,"BSTAR":-9.7155e-05,"MEAN_MOTION_DOT":-2.7e-07,"MEAN_MOTION_DDOT":0.0},{"OBJECT_NAME":"ONEWEB-0360","OBJECT_ID":"2021-090H","EPOCH":"2026-04-22T17:07:53.961600","MEAN_MOTION":13.20772648,"ECCENTRICITY":0.0001595,"INCLINATION":87.9137,"RA_OF_ASC_NODE":285.5119,"ARG_OF_PERICENTER":94.2961,"MEAN_ANOMALY":265.8354,"EPHEMERIS_TYPE":0,"CLASSIFICATION_TYPE":"U","NORAD_CAT_ID":49286,"ELEMENT_SET_NO":999,"REV_AT_EPOCH":22252,"BSTAR":-6.2052e-05,"MEAN_MOTION_DOT":-1.2e-07,"MEAN_MOTION_DDOT":0.0},{"OBJECT_NAME":"ONEWEB-0361","OBJECT_ID":"2021-090J","EPOCH":"2026-04-22T22:07:52.870944","MEAN_MOTION":13.20772868,"ECCENTRICITY":0.0001847,"INCLINATION":87.9142,"RA_OF_ASC_NODE":285.4682,"ARG_OF_PERICENTER":99.8539,"MEAN_ANOMALY":260.2803,"EPHEMERIS_TYPE":0,"CLASSIFICATION_TYPE":"U","NORAD_CAT_ID":49287,"ELEMENT_SET_NO":999,"REV_AT_EPOCH":22300,"BSTAR":-8.801e-05,"MEAN_MOTION_DOT":-2.3e-07,"MEAN_MOTION_DDOT":0.0},{"OBJECT_NAME":"ONEWEB-0362","OBJECT_ID":"2021-090K","EPOCH":"2026-04-22T23:34:56.827488","MEAN_MOTION":13.1972429,"ECCENTRICITY":0.0001716,"INCLINATION":87.9155,"RA_OF_ASC_NODE":315.9884,"ARG_OF_PERICENTER":79.3186,"MEAN_ANOMALY":280.814,"EPHEMERIS_TYPE":0,"CLASSIFICATION_TYPE":"U","NORAD_CAT_ID":49288,"ELEMENT_SET_NO":999,"REV_AT_EPOCH":21963,"BSTAR":3.7999e-05,"MEAN_MOTION_DOT":2.8e-07,"MEAN_MOTION_DDOT":0.0},{"OBJECT_NAME":"ONEWEB-0363","OBJECT_ID":"2021-090L","EPOCH":"2026-04-22T22:30:36.115200","MEAN_MOTION":13.20788481,"ECCENTRICITY":0.0001798,"INCLINATION":87.9127,"RA_OF_ASC_NODE":285.4565,"ARG_OF_PERICENTER":131.4359,"MEAN_ANOMALY":228.6929,"EPHEMERIS_TYPE":0,"CLASSIFICATION_TYPE":"U","NORAD_CAT_ID":49289,"ELEMENT_SET_NO":999,"REV_AT_EPOCH":22301,"BSTAR":-0.010948,"MEAN_MOTION_DOT":-4.437e-05,"MEAN_MOTION_DDOT":0.0},{"OBJECT_NAME":"ONEWEB-0364","OBJECT_ID":"2021-090M","EPOCH":"2026-04-22T23:25:09.196032","MEAN_MOTION":13.2076947,"ECCENTRICITY":0.0001771,"INCLINATION":87.9131,"RA_OF_ASC_NODE":285.4685,"ARG_OF_PERICENTER":93.8529,"MEAN_ANOMALY":266.2807,"EPHEMERIS_TYPE":0,"CLASSIFICATION_TYPE":"U","NORAD_CAT_ID":49290,"ELEMENT_SET_NO":999,"REV_AT_EPOCH":22415,"BSTAR":1.7421e-05,"MEAN_MOTION_DOT":2e-07,"MEAN_MOTION_DDOT":0.0},{"OBJECT_NAME":"ONEWEB-0365","OBJECT_ID":"2021-090N","EPOCH":"2026-04-22T23:48:35.991936","MEAN_MOTION":13.19723796,"ECCENTRICITY":0.0001848,"INCLINATION":87.9164,"RA_OF_ASC_NODE":315.97,"ARG_OF_PERICENTER":84.6718,"MEAN_ANOMALY":275.4625,"EPHEMERIS_TYPE":0,"CLASSIFICATION_TYPE":"U","NORAD_CAT_ID":49291,"ELEMENT_SET_NO":999,"REV_AT_EPOCH":21914,"BSTAR":9.521300000000001e-05,"MEAN_MOTION_DOT":5.1e-07,"MEAN_MOTION_DDOT":0.0},{"OBJECT_NAME":"ONEWEB-0366","OBJECT_ID":"2021-090P","EPOCH":"2026-04-22T19:03:03.175200","MEAN_MOTION":13.14502606,"ECCENTRICITY":0.0001706,"INCLINATION":87.8917,"RA_OF_ASC_NODE":300.7647,"ARG_OF_PERICENTER":91.6927,"MEAN_ANOMALY":268.4398,"EPHEMERIS_TYPE":0,"CLASSIFICATION_TYPE":"U","NORAD_CAT_ID":49292,"ELEMENT_SET_NO":999,"REV_AT_EPOCH":22028,"BSTAR":-0.00017381,"MEAN_MOTION_DOT":-5.2e-07,"MEAN_MOTION_DDOT":0.0},{"OBJECT_NAME":"ONEWEB-0367","OBJECT_ID":"2021-090Q","EPOCH":"2026-04-22T22:28:19.996320","MEAN_MOTION":13.20769426,"ECCENTRICITY":0.0001759,"INCLINATION":87.9141,"RA_OF_ASC_NODE":285.4663,"ARG_OF_PERICENTER":87.5656,"MEAN_ANOMALY":272.5679,"EPHEMERIS_TYPE":0,"CLASSIFICATION_TYPE":"U","NORAD_CAT_ID":49293,"ELEMENT_SET_NO":999,"REV_AT_EPOCH":22253,"BSTAR":-0.00012046999999999999,"MEAN_MOTION_DOT":-3.6e-07,"MEAN_MOTION_DDOT":0.0},{"OBJECT_NAME":"ONEWEB-0368","OBJECT_ID":"2021-090R","EPOCH":"2026-04-22T21:49:41.513664","MEAN_MOTION":13.20772754,"ECCENTRICITY":0.0002535,"INCLINATION":87.9129,"RA_OF_ASC_NODE":285.4883,"ARG_OF_PERICENTER":97.4532,"MEAN_ANOMALY":262.6889,"EPHEMERIS_TYPE":0,"CLASSIFICATION_TYPE":"U","NORAD_CAT_ID":49294,"ELEMENT_SET_NO":999,"REV_AT_EPOCH":22368,"BSTAR":-1.1029e-05,"MEAN_MOTION_DOT":9e-08,"MEAN_MOTION_DDOT":0.0},{"OBJECT_NAME":"ONEWEB-0369","OBJECT_ID":"2021-090S","EPOCH":"2026-04-22T23:41:45.807072","MEAN_MOTION":13.19723787,"ECCENTRICITY":0.0001906,"INCLINATION":87.9155,"RA_OF_ASC_NODE":315.9841,"ARG_OF_PERICENTER":87.1961,"MEAN_ANOMALY":272.939,"EPHEMERIS_TYPE":0,"CLASSIFICATION_TYPE":"U","NORAD_CAT_ID":49295,"ELEMENT_SET_NO":999,"REV_AT_EPOCH":21913,"BSTAR":0.00016421,"MEAN_MOTION_DOT":7.9e-07,"MEAN_MOTION_DDOT":0.0},{"OBJECT_NAME":"ONEWEB-0370","OBJECT_ID":"2021-090T","EPOCH":"2026-04-22T20:52:52.657824","MEAN_MOTION":13.20773266,"ECCENTRICITY":0.0001507,"INCLINATION":87.9136,"RA_OF_ASC_NODE":285.4802,"ARG_OF_PERICENTER":89.8074,"MEAN_ANOMALY":270.3232,"EPHEMERIS_TYPE":0,"CLASSIFICATION_TYPE":"U","NORAD_CAT_ID":49296,"ELEMENT_SET_NO":999,"REV_AT_EPOCH":22256,"BSTAR":-6.4191e-05,"MEAN_MOTION_DOT":-1.3e-07,"MEAN_MOTION_DDOT":0.0},{"OBJECT_NAME":"ONEWEB-0371","OBJECT_ID":"2021-090U","EPOCH":"2026-04-22T23:53:08.767104","MEAN_MOTION":13.1972515,"ECCENTRICITY":0.0001966,"INCLINATION":87.9158,"RA_OF_ASC_NODE":315.9714,"ARG_OF_PERICENTER":79.2365,"MEAN_ANOMALY":280.8989,"EPHEMERIS_TYPE":0,"CLASSIFICATION_TYPE":"U","NORAD_CAT_ID":49297,"ELEMENT_SET_NO":999,"REV_AT_EPOCH":21917,"BSTAR":-0.00097699,"MEAN_MOTION_DOT":-3.78e-06,"MEAN_MOTION_DDOT":0.0},{"OBJECT_NAME":"ONEWEB-0372","OBJECT_ID":"2021-090V","EPOCH":"2026-04-22T16:58:35.646528","MEAN_MOTION":13.20769557,"ECCENTRICITY":0.0001889,"INCLINATION":87.9141,"RA_OF_ASC_NODE":285.5135,"ARG_OF_PERICENTER":91.8184,"MEAN_ANOMALY":268.3166,"EPHEMERIS_TYPE":0,"CLASSIFICATION_TYPE":"U","NORAD_CAT_ID":49298,"ELEMENT_SET_NO":999,"REV_AT_EPOCH":22251,"BSTAR":-9.0243e-05,"MEAN_MOTION_DOT":-2.4e-07,"MEAN_MOTION_DDOT":0.0}]