ONEWEB-0356             
1 49283U 21090E   26112.99946826 -.00000051  00000+0 -15757-3 0  9998
2 49283  87.9141 285.4485 0002342 112.6228 247.5153 13.20772849222542
ONEWEB-0358             
1 49284U 21090F   26113.02946823 -.00000030  00000+0 -10481-3 0  9997
2 49284  87.9140 285.4457 0001711  98.8486 261.2841 13.20769776223274
ONEWEB-0359             
1 49285U 21090G   26112.87478881 -.00000027  00000+0 -97155-4 0  9994
2 49285  87.9137 285.4733 0001542  98.1411 261.9897 13.20769453223237
ONEWEB-0360             
1 49286U 21090H   26112.71381900 -.00000012  00000+0 -62052-4 0  9995
2 49286  87.9137 285.5119 0001595  94.2961 265.8354 13.20772648222524
ONEWEB-0361             
1 49287U 21090J   26112.92213971 -.00000023  00000+0 -88010-4 0  9995
2 49287  87.9142 285.4682 0001847  99.8539 260.2803 13.20772868223003
ONEWEB-0362             
1 49288U 21090K   26112.98260217  .00000028  00000+0  37999-4 0  9990
2 49288  87.9155 315.9884 0001716  79.3186 280.8140 13.19724290219637
ONEWEB-0363             
1 49289U 21090L   26112.93791800 -.00004437  00000+0 -10948-1 0  9995
2 49289  87.9127 285.4565 0001798 131.4359 228.6929 13.20788481223012
ONEWEB-0364             
1 49290U 21090M   26112.97580088  .00000020  00000+0  17421-4 0  9993
2 49290  87.9131 285.4685 0001771  93.8529 266.2807 13.20769470224159
ONEWEB-0365             
1 49291U 21090N   26112.99208324  .00000051  00000+0  95213-4 0  9995
2 49291  87.9164 315.9700 0001848  84.6718 275.4625 13.19723796219148
ONEWEB-0366             
1 49292U 21090P   26112.79378675 -.00000052  00000+0 -17381-3 0  9993
2 49292  87.8917 300.7647 0001706  91.6927 268.4398 13.14502606220285
ONEWEB-0367             
1 49293U 21090Q   26112.93634255 -.00000036  00000+0 -12047-3 0  9995
2 49293  87.9141 285.4663 0001759  87.5656 272.5679 13.20769426222534
ONEWEB-0368             
1 49294U 21090R   26112.90950826  .00000009  00000+0 -11029-4 0  9997
2 49294  87.9129 285.4883 0002535  97.4532 262.6889 13.20772754223689
ONEWEB-0369             
1 49295U 21090S   26112.98733573  .00000079  00000+0  16421-3 0  9990
2 49295  87.9155 315.9841 0001906  87.1961 272.9390 13.19723787219131
ONEWEB-0370             
1 49296U 21090T   26112.87005391 -.00000013  00000+0 -64191-4 0  9997
2 49296  87.9136 285.4802 0001507  89.8074 270.3232 13.20773266222567
ONEWEB-0371             
1 49297U 21090U   26112.99524036 -.00000378  00000+0 -97699-3 0  9995
2 49297  87.9158 315.9714 0001966  79.2365 280.8989 13.19725150219173
ONEWEB-0372             
1 49298U 21090V   26112.70735702 -.00000024  00000+0 -90243-4 0  9996
2 49298  87.9141 285.5135 0001889  91.8184 268.3166 13.20769557222519
